CCSDS_OMM_VERS = 2.0
CREATION_DATE  = 
ORIGINATOR     = 

OBJECT_NAME    = SL-14 R/B
OBJECT_ID      = 1986-046B
CENTER_NAME    = EARTH
REF_FRAME      = TEME
TIME_SYSTEM    = UTC
MEAN_ELEMENT_THEORY = SGP/SGP4

EPOCH          = 2026-03-12T07:11:13.529760
MEAN_MOTION    = 14.85593292
ECCENTRICITY   = .00221282
INCLINATION    = 82.4782
RA_OF_ASC_NODE = 77.7149
ARG_OF_PERICENTER = 216.3300
MEAN_ANOMALY   = 143.6415

EPHEMERIS_TYPE = 0
CLASSIFICATION_TYPE = U
NORAD_CAT_ID   = 16792
ELEMENT_SET_NO = 999
REV_AT_EPOCH   = 12679
BSTAR          = .65487732E-4
MEAN_MOTION_DOT = .593E-5
MEAN_MOTION_DDOT = 0

CCSDS_OMM_VERS = 2.0
CREATION_DATE  = 
ORIGINATOR     = 

OBJECT_NAME    = SL-14 R/B
OBJECT_ID      = 1986-055B
CENTER_NAME    = EARTH
REF_FRAME      = TEME
TIME_SYSTEM    = UTC
MEAN_ELEMENT_THEORY = SGP/SGP4

EPOCH          = 2026-03-12T05:28:29.307072
MEAN_MOTION    = 14.85645237
ECCENTRICITY   = .00179685
INCLINATION    = 82.5196
RA_OF_ASC_NODE = 124.2882
ARG_OF_PERICENTER = 327.8325
MEAN_ANOMALY   = 96.3037

EPHEMERIS_TYPE = 0
CLASSIFICATION_TYPE = U
NORAD_CAT_ID   = 16882
ELEMENT_SET_NO = 999
REV_AT_EPOCH   = 11974
BSTAR          = .55590416E-4
MEAN_MOTION_DOT = .507E-5
MEAN_MOTION_DDOT = 0

CCSDS_OMM_VERS = 2.0
CREATION_DATE  = 
ORIGINATOR     = 

OBJECT_NAME    = AJISAI (EGS)
OBJECT_ID      = 1986-061A
CENTER_NAME    = EARTH
REF_FRAME      = TEME
TIME_SYSTEM    = UTC
MEAN_ELEMENT_THEORY = SGP/SGP4

EPOCH          = 2026-03-12T06:56:51.744192
MEAN_MOTION    = 12.44515659
ECCENTRICITY   = .00112786
INCLINATION    = 50.0081
RA_OF_ASC_NODE = 85.3528
ARG_OF_PERICENTER = 293.7322
MEAN_ANOMALY   = 154.3077

EPHEMERIS_TYPE = 0
CLASSIFICATION_TYPE = U
NORAD_CAT_ID   = 16908
ELEMENT_SET_NO = 999
REV_AT_EPOCH   = 46832
BSTAR          = -.3133255E-5
MEAN_MOTION_DOT = -.98E-6
MEAN_MOTION_DDOT = 0

CCSDS_OMM_VERS = 2.0
CREATION_DATE  = 
ORIGINATOR     = 

OBJECT_NAME    = SL-14 R/B
OBJECT_ID      = 1987-024B
CENTER_NAME    = EARTH
REF_FRAME      = TEME
TIME_SYSTEM    = UTC
MEAN_ELEMENT_THEORY = SGP/SGP4

EPOCH          = 2026-03-12T03:07:05.037888
MEAN_MOTION    = 14.86134375
ECCENTRICITY   = .00167342
INCLINATION    = 82.5245
RA_OF_ASC_NODE = 90.4695
ARG_OF_PERICENTER = 251.1218
MEAN_ANOMALY   = 108.8185

EPHEMERIS_TYPE = 0
CLASSIFICATION_TYPE = U
NORAD_CAT_ID   = 17567
ELEMENT_SET_NO = 999
REV_AT_EPOCH   = 8849
BSTAR          = .54415109E-4
MEAN_MOTION_DOT = .502E-5
MEAN_MOTION_DDOT = 0

CCSDS_OMM_VERS = 2.0
CREATION_DATE  = 
ORIGINATOR     = 

OBJECT_NAME    = COSMOS 1833
OBJECT_ID      = 1987-027A
CENTER_NAME    = EARTH
REF_FRAME      = TEME
TIME_SYSTEM    = UTC
MEAN_ELEMENT_THEORY = SGP/SGP4

EPOCH          = 2026-03-12T03:00:47.122560
MEAN_MOTION    = 14.13054205
ECCENTRICITY   = .002415
INCLINATION    = 70.9219
RA_OF_ASC_NODE = 320.8998
ARG_OF_PERICENTER = 211.1193
MEAN_ANOMALY   = 148.8499

EPHEMERIS_TYPE = 0
CLASSIFICATION_TYPE = U
NORAD_CAT_ID   = 17589
ELEMENT_SET_NO = 999
REV_AT_EPOCH   = 1066
BSTAR          = -.75331763E-4
MEAN_MOTION_DOT = -.189E-5
MEAN_MOTION_DDOT = 0

CCSDS_OMM_VERS = 2.0
CREATION_DATE  = 
ORIGINATOR     = 

OBJECT_NAME    = SL-16 R/B
OBJECT_ID      = 1987-027B
CENTER_NAME    = EARTH
REF_FRAME      = TEME
TIME_SYSTEM    = UTC
MEAN_ELEMENT_THEORY = SGP/SGP4

EPOCH          = 2026-03-12T07:17:38.027040
MEAN_MOTION    = 14.17166440
ECCENTRICITY   = .00032578
INCLINATION    = 70.9996
RA_OF_ASC_NODE = 270.9859
ARG_OF_PERICENTER = 137.4369
MEAN_ANOMALY   = 222.7008

EPHEMERIS_TYPE = 0
CLASSIFICATION_TYPE = U
NORAD_CAT_ID   = 17590
ELEMENT_SET_NO = 999
REV_AT_EPOCH   = 1571
BSTAR          = .37203538E-4
MEAN_MOTION_DOT = .27E-6
MEAN_MOTION_DDOT = 0

CCSDS_OMM_VERS = 2.0
CREATION_DATE  = 
ORIGINATOR     = 

OBJECT_NAME    = SL-14 R/B
OBJECT_ID      = 1987-038B
CENTER_NAME    = EARTH
REF_FRAME      = TEME
TIME_SYSTEM    = UTC
MEAN_ELEMENT_THEORY = SGP/SGP4

EPOCH          = 2026-03-12T03:01:39.328896
MEAN_MOTION    = 14.85371680
ECCENTRICITY   = .00198689
INCLINATION    = 82.4996
RA_OF_ASC_NODE = 294.5124
ARG_OF_PERICENTER = 152.6537
MEAN_ANOMALY   = 207.5730

EPHEMERIS_TYPE = 0
CLASSIFICATION_TYPE = U
NORAD_CAT_ID   = 17912
ELEMENT_SET_NO = 999
REV_AT_EPOCH   = 7959
BSTAR          = .5453717E-4
MEAN_MOTION_DOT = .495E-5
MEAN_MOTION_DDOT = 0

CCSDS_OMM_VERS = 2.0
CREATION_DATE  = 
ORIGINATOR     = 

OBJECT_NAME    = COSMOS 1844
OBJECT_ID      = 1987-041A
CENTER_NAME    = EARTH
REF_FRAME      = TEME
TIME_SYSTEM    = UTC
MEAN_ELEMENT_THEORY = SGP/SGP4

EPOCH          = 2026-03-12T07:11:22.064352
MEAN_MOTION    = 14.14551736
ECCENTRICITY   = .00301622
INCLINATION    = 70.9001
RA_OF_ASC_NODE = 28.6699
ARG_OF_PERICENTER = 13.9614
MEAN_ANOMALY   = 346.2335

EPHEMERIS_TYPE = 0
CLASSIFICATION_TYPE = U
NORAD_CAT_ID   = 17973
ELEMENT_SET_NO = 999
REV_AT_EPOCH   = 395
BSTAR          = -.37886308E-4
MEAN_MOTION_DOT = -.121E-5
MEAN_MOTION_DDOT = 0

CCSDS_OMM_VERS = 2.0
CREATION_DATE  = 
ORIGINATOR     = 

OBJECT_NAME    = SL-14 R/B
OBJECT_ID      = 1987-055B
CENTER_NAME    = EARTH
REF_FRAME      = TEME
TIME_SYSTEM    = UTC
MEAN_ELEMENT_THEORY = SGP/SGP4

EPOCH          = 2026-03-12T05:41:46.386816
MEAN_MOTION    = 14.85632925
ECCENTRICITY   = .00209506
INCLINATION    = 82.5031
RA_OF_ASC_NODE = 346.6311
ARG_OF_PERICENTER = 9.5666
MEAN_ANOMALY   = 350.5944

EPHEMERIS_TYPE = 0
CLASSIFICATION_TYPE = U
NORAD_CAT_ID   = 18153
ELEMENT_SET_NO = 999
REV_AT_EPOCH   = 7031
BSTAR          = .72356921E-4
MEAN_MOTION_DOT = .653E-5
MEAN_MOTION_DDOT = 0

CCSDS_OMM_VERS = 2.0
CREATION_DATE  = 
ORIGINATOR     = 

OBJECT_NAME    = COSMOS 1867
OBJECT_ID      = 1987-060A
CENTER_NAME    = EARTH
REF_FRAME      = TEME
TIME_SYSTEM    = UTC
MEAN_ELEMENT_THEORY = SGP/SGP4

EPOCH          = 2026-03-12T00:37:39.206208
MEAN_MOTION    = 14.31503439
ECCENTRICITY   = .00145201
INCLINATION    = 65.0109
RA_OF_ASC_NODE = 300.1626
ARG_OF_PERICENTER = 278.8175
MEAN_ANOMALY   = 81.1265

EPHEMERIS_TYPE = 0
CLASSIFICATION_TYPE = U
NORAD_CAT_ID   = 18187
ELEMENT_SET_NO = 999
REV_AT_EPOCH   = 2027
BSTAR          = .26030475E-4
MEAN_MOTION_DOT = -.31E-6
MEAN_MOTION_DDOT = 0

CCSDS_OMM_VERS = 2.0
CREATION_DATE  = 
ORIGINATOR     = 

OBJECT_NAME    = SL-14 R/B
OBJECT_ID      = 1988-001B
CENTER_NAME    = EARTH
REF_FRAME      = TEME
TIME_SYSTEM    = UTC
MEAN_ELEMENT_THEORY = SGP/SGP4

EPOCH          = 2026-03-12T07:12:16.472160
MEAN_MOTION    = 14.85531575
ECCENTRICITY   = .00169896
INCLINATION    = 82.5156
RA_OF_ASC_NODE = 192.9053
ARG_OF_PERICENTER = 226.4975
MEAN_ANOMALY   = 133.4830

EPHEMERIS_TYPE = 0
CLASSIFICATION_TYPE = U
NORAD_CAT_ID   = 18749
ELEMENT_SET_NO = 999
REV_AT_EPOCH   = 4241
BSTAR          = .78267508E-4
MEAN_MOTION_DOT = .701E-5
MEAN_MOTION_DDOT = 0

CCSDS_OMM_VERS = 2.0
CREATION_DATE  = 
ORIGINATOR     = 

OBJECT_NAME    = COSMOS 1933
OBJECT_ID      = 1988-020A
CENTER_NAME    = EARTH
REF_FRAME      = TEME
TIME_SYSTEM    = UTC
MEAN_ELEMENT_THEORY = SGP/SGP4

EPOCH          = 2026-03-11T23:10:12.478944
MEAN_MOTION    = 15.18007342
ECCENTRICITY   = .00041306
INCLINATION    = 82.5104
RA_OF_ASC_NODE = 248.6596
ARG_OF_PERICENTER = 173.7359
MEAN_ANOMALY   = 186.3927

EPHEMERIS_TYPE = 0
CLASSIFICATION_TYPE = U
NORAD_CAT_ID   = 18958
ELEMENT_SET_NO = 999
REV_AT_EPOCH   = 5057
BSTAR          = .25936298E-3
MEAN_MOTION_DOT = .5303E-4
MEAN_MOTION_DDOT = 0

